{
  "type": "FeatureCollection",
  "features": [
    {
      "type": "Feature",
      "properties": {
        "norad_id": 31338,
        "name": "FENGYUN 1C DEB",
        "group": "fengyun-1c-debris",
        "lat": 80.17550420518546,
        "lon": 132.14215049455947,
        "alt_km": 763.6170513141788,
        "timestamp": "2025-12-20T14:38:02.251661+00:00",
        "meta_object_name": "FENGYUN 1C DEB",
        "meta_object_id": "1999-025BQS",
        "meta_epoch": "2025-12-14T19:38:34.815264",
        "meta_mean_motion": 14.20750206,
        "meta_eccentricity": 0.00716846,
        "meta_inclination": 98.7169,
        "meta_ra_of_asc_node": 188.8001,
        "meta_arg_of_pericenter": 102.981,
        "meta_mean_anomaly": 257.9384,
        "meta_ephemeris_type": 0,
        "meta_classification_type": "U",
        "meta_norad_cat_id": 31338,
        "meta_element_set_no": 999,
        "meta_rev_at_epoch": 63687,
        "meta_bstar": 0.0020507774,
        "meta_mean_motion_dot": 4.5e-05,
        "meta_mean_motion_ddot": 0,
        "tle_line1": "1 31338U 99025BQS 25348.81845851  .00004500  00000+0  20508-2 0  9990",
        "tle_line2": "2 31338  98.7169 188.8001 0071684 102.9810 257.9384 14.20750206636878"
      },
      "geometry": {
        "type": "Point",
        "coordinates": [
          132.14215049455947,
          80.17550420518546
        ]
      }
    },
    {
      "type": "Feature",
      "properties": {
        "norad_id": 31339,
        "name": "FENGYUN 1C DEB",
        "group": "fengyun-1c-debris",
        "lat": -43.42709636789904,
        "lon": -177.2931412645363,
        "alt_km": 847.5848146112294,
        "timestamp": "2025-12-20T14:38:02.251670+00:00",
        "meta_object_name": "FENGYUN 1C DEB",
        "meta_object_id": "1999-025BQT",
        "meta_epoch": "2025-12-19T06:57:41.759424",
        "meta_mean_motion": 14.12191979,
        "meta_eccentricity": 0.0074224,
        "meta_inclination": 98.713,
        "meta_ra_of_asc_node": 9.7704,
        "meta_arg_of_pericenter": 306.4294,
        "meta_mean_anomaly": 53.005,
        "meta_ephemeris_type": 0,
        "meta_classification_type": "U",
        "meta_norad_cat_id": 31339,
        "meta_element_set_no": 999,
        "meta_rev_at_epoch": 95770,
        "meta_bstar": 0.00067873,
        "meta_mean_motion_dot": 1.236e-05,
        "meta_mean_motion_ddot": 0,
        "tle_line1": "1 31339U 99025BQT 25353.29006666  .00001236  00000+0  67873-3 0  9992",
        "tle_line2": "2 31339  98.7130   9.7704 0074224 306.4294  53.0050 14.12191979957708"
      },
      "geometry": {
        "type": "Point",
        "coordinates": [
          -177.2931412645363,
          -43.42709636789904
        ]
      }
    },
    {
      "type": "Feature",
      "properties": {
        "norad_id": 31341,
        "name": "FENGYUN 1C DEB",
        "group": "fengyun-1c-debris",
        "lat": -45.80469663375494,
        "lon": 46.92785704382615,
        "alt_km": 684.2448005721944,
        "timestamp": "2025-12-20T14:38:02.251680+00:00",
        "meta_object_name": "FENGYUN 1C DEB",
        "meta_object_id": "1999-025BQV",
        "meta_epoch": "2025-12-19T09:11:15.996192",
        "meta_mean_motion": 14.53385955,
        "meta_eccentricity": 0.0052957,
        "meta_inclination": 99.5549,
        "meta_ra_of_asc_node": 35.5545,
        "meta_arg_of_pericenter": 326.7268,
        "meta_mean_anomaly": 50.9353,
        "meta_ephemeris_type": 0,
        "meta_classification_type": "U",
        "meta_norad_cat_id": 31341,
        "meta_element_set_no": 999,
        "meta_rev_at_epoch": 97715,
        "meta_bstar": 0.00088467,
        "meta_mean_motion_dot": 3.691e-05,
        "meta_mean_motion_ddot": 0,
        "tle_line1": "1 31341U 99025BQV 25353.38282403  .00003691  00000+0  88467-3 0  9999",
        "tle_line2": "2 31341  99.5549  35.5545 0052957 326.7268  50.9353 14.53385955977156"
      },
      "geometry": {
        "type": "Point",
        "coordinates": [
          46.92785704382615,
          -45.80469663375494
        ]
      }
    },
    {
      "type": "Feature",
      "properties": {
        "norad_id": 31342,
        "name": "FENGYUN 1C DEB",
        "group": "fengyun-1c-debris",
        "lat": -28.909646735789828,
        "lon": -43.84757319131809,
        "alt_km": 830.6366011842265,
        "timestamp": "2025-12-20T14:38:02.251690+00:00",
        "meta_object_name": "FENGYUN 1C DEB",
        "meta_object_id": "1999-025BQW",
        "meta_epoch": "2025-12-18T02:36:10.701216",
        "meta_mean_motion": 14.36773127,
        "meta_eccentricity": 0.01116396,
        "meta_inclination": 98.9375,
        "meta_ra_of_asc_node": 308.5708,
        "meta_arg_of_pericenter": 203.5092,
        "meta_mean_anomaly": 156.0968,
        "meta_ephemeris_type": 0,
        "meta_classification_type": "U",
        "meta_norad_cat_id": 31342,
        "meta_element_set_no": 999,
        "meta_rev_at_epoch": 97968,
        "meta_bstar": 0.00010025422,
        "meta_mean_motion_dot": 2.67e-06,
        "meta_mean_motion_ddot": 0,
        "tle_line1": "1 31342U 99025BQW 25352.10845719  .00000267  00000+0  10025-3 0  9995",
        "tle_line2": "2 31342  98.9375 308.5708 0111639 203.5092 156.0968 14.36773127979684"
      },
      "geometry": {
        "type": "Point",
        "coordinates": [
          -43.84757319131809,
          -28.909646735789828
        ]
      }
    },
    {
      "type": "Feature",
      "properties": {
        "norad_id": 31346,
        "name": "FENGYUN 1C DEB",
        "group": "fengyun-1c-debris",
        "lat": 79.88775442703519,
        "lon": -156.10742890746928,
        "alt_km": 544.1669547104384,
        "timestamp": "2025-12-20T14:38:02.251700+00:00",
        "meta_object_name": "FENGYUN 1C DEB",
        "meta_object_id": "1999-025BRA",
        "meta_epoch": "2025-12-19T20:44:26.187936",
        "meta_mean_motion": 15.11228106,
        "meta_eccentricity": 0.0109475,
        "meta_inclination": 98.8662,
        "meta_ra_of_asc_node": 321.9539,
        "meta_arg_of_pericenter": 352.0204,
        "meta_mean_anomaly": 7.9275,
        "meta_ephemeris_type": 0,
        "meta_classification_type": "U",
        "meta_norad_cat_id": 31346,
        "meta_element_set_no": 999,
        "meta_rev_at_epoch": 99603,
        "meta_bstar": 0.00088315,
        "meta_mean_motion_dot": 0.00017087,
        "meta_mean_motion_ddot": 0,
        "tle_line1": "1 31346U 99025BRA 25353.86419199  .00017087  00000+0  88315-3 0  9997",
        "tle_line2": "2 31346  98.8662 321.9539 0109475 352.0204   7.9275 15.11228106996036"
      },
      "geometry": {
        "type": "Point",
        "coordinates": [
          -156.10742890746928,
          79.88775442703519
        ]
      }
    },
    {
      "type": "Feature",
      "properties": {
        "norad_id": 31348,
        "name": "FENGYUN 1C DEB",
        "group": "fengyun-1c-debris",
        "lat": 78.91155592406743,
        "lon": -178.9500357908558,
        "alt_km": 755.3405650111181,
        "timestamp": "2025-12-20T14:38:02.251711+00:00",
        "meta_object_name": "FENGYUN 1C DEB",
        "meta_object_id": "1999-025BRC",
        "meta_epoch": "2025-12-14T08:11:43.094400",
        "meta_mean_motion": 14.34057653,
        "meta_eccentricity": 0.00357582,
        "meta_inclination": 99.1186,
        "meta_ra_of_asc_node": 299.4079,
        "meta_arg_of_pericenter": 61.1218,
        "meta_mean_anomaly": 91.853,
        "meta_ephemeris_type": 0,
        "meta_classification_type": "U",
        "meta_norad_cat_id": 31348,
        "meta_element_set_no": 999,
        "meta_rev_at_epoch": 96272,
        "meta_bstar": 0.0015205829,
        "meta_mean_motion_dot": 4.234e-05,
        "meta_mean_motion_ddot": 0,
        "tle_line1": "1 31348U 99025BRC 25348.34147100  .00004234  00000+0  15206-2 0  9994",
        "tle_line2": "2 31348  99.1186 299.4079 0035758  61.1218  91.8530 14.34057653962722"
      },
      "geometry": {
        "type": "Point",
        "coordinates": [
          -178.9500357908558,
          78.91155592406743
        ]
      }
    },
    {
      "type": "Feature",
      "properties": {
        "norad_id": 31350,
        "name": "FENGYUN 1C DEB",
        "group": "fengyun-1c-debris",
        "lat": 19.16605747769609,
        "lon": 163.77397861356934,
        "alt_km": 769.1280352393505,
        "timestamp": "2025-12-20T14:38:02.251720+00:00",
        "meta_object_name": "FENGYUN 1C DEB",
        "meta_object_id": "1999-025BRE",
        "meta_epoch": "2025-12-08T18:02:03.920064",
        "meta_mean_motion": 14.34830277,
        "meta_eccentricity": 0.00667483,
        "meta_inclination": 98.9604,
        "meta_ra_of_asc_node": 154.6193,
        "meta_arg_of_pericenter": 136.9079,
        "meta_mean_anomaly": 223.7357,
        "meta_ephemeris_type": 0,
        "meta_classification_type": "U",
        "meta_norad_cat_id": 31350,
        "meta_element_set_no": 999,
        "meta_rev_at_epoch": 70196,
        "meta_bstar": 0.0010632143,
        "meta_mean_motion_dot": 3.049e-05,
        "meta_mean_motion_ddot": 0,
        "tle_line1": "1 31350U 99025BRE 25342.75143426  .00003049  00000+0  10632-2 0  9994",
        "tle_line2": "2 31350  98.9604 154.6193 0066748 136.9079 223.7357 14.34830277701966"
      },
      "geometry": {
        "type": "Point",
        "coordinates": [
          163.77397861356934,
          19.16605747769609
        ]
      }
    }
  ]
}